2022-056C               
1 52718U 22056C   22142.26467636  .00000096  00000+0  48928-4 0  9998
2 52718  86.0006 319.4044 0012624 296.9932  62.9938 14.04126044   266
YZ-1S R/B               
1 52719U 22056D   22141.50724517  .79778463 -18153-6  51323-3 0  9993
2 52719  85.9570 319.7392 0182897 293.3796  64.9177 16.22593682   174
